CCSDS_OMM_VERS = 2.0
CREATION_DATE  = 
ORIGINATOR     = 

OBJECT_NAME    = SL-3 R/B
OBJECT_ID      = 1982-079B
CENTER_NAME    = EARTH
REF_FRAME      = TEME
TIME_SYSTEM    = UTC
MEAN_ELEMENT_THEORY = SGP/SGP4

EPOCH          = 2026-03-19T07:30:43.411680
MEAN_MOTION    = 15.24931945
ECCENTRICITY   = .00253802
INCLINATION    = 81.1491
RA_OF_ASC_NODE = 181.7153
ARG_OF_PERICENTER = 132.8575
MEAN_ANOMALY   = 227.4796

EPHEMERIS_TYPE = 0
CLASSIFICATION_TYPE = U
NORAD_CAT_ID   = 13403
ELEMENT_SET_NO = 999
REV_AT_EPOCH   = 37916
BSTAR          = .19620178E-3
MEAN_MOTION_DOT = .4956E-4
MEAN_MOTION_DDOT = 0

CCSDS_OMM_VERS = 2.0
CREATION_DATE  = 
ORIGINATOR     = 

OBJECT_NAME    = SL-14 R/B
OBJECT_ID      = 1982-092B
CENTER_NAME    = EARTH
REF_FRAME      = TEME
TIME_SYSTEM    = UTC
MEAN_ELEMENT_THEORY = SGP/SGP4

EPOCH          = 2026-03-19T06:28:17.050656
MEAN_MOTION    = 14.86675043
ECCENTRICITY   = .00187372
INCLINATION    = 82.5675
RA_OF_ASC_NODE = 132.4387
ARG_OF_PERICENTER = 269.3047
MEAN_ANOMALY   = 158.9700

EPHEMERIS_TYPE = 0
CLASSIFICATION_TYPE = U
NORAD_CAT_ID   = 13553
ELEMENT_SET_NO = 999
REV_AT_EPOCH   = 33035
BSTAR          = .41295129E-4
MEAN_MOTION_DOT = .392E-5
MEAN_MOTION_DDOT = 0

CCSDS_OMM_VERS = 2.0
CREATION_DATE  = 
ORIGINATOR     = 

OBJECT_NAME    = SL-3 R/B
OBJECT_ID      = 1983-010B
CENTER_NAME    = EARTH
REF_FRAME      = TEME
TIME_SYSTEM    = UTC
MEAN_ELEMENT_THEORY = SGP/SGP4

EPOCH          = 2026-03-19T04:58:35.671584
MEAN_MOTION    = 15.46676912
ECCENTRICITY   = .00170749
INCLINATION    = 81.1066
RA_OF_ASC_NODE = 350.5776
ARG_OF_PERICENTER = 19.6753
MEAN_ANOMALY   = 340.5146

EPHEMERIS_TYPE = 0
CLASSIFICATION_TYPE = U
NORAD_CAT_ID   = 13819
ELEMENT_SET_NO = 999
REV_AT_EPOCH   = 35941
BSTAR          = .22547197E-3
MEAN_MOTION_DOT = .11351E-3
MEAN_MOTION_DDOT = 0

CCSDS_OMM_VERS = 2.0
CREATION_DATE  = 
ORIGINATOR     = 

OBJECT_NAME    = SL-3 R/B
OBJECT_ID      = 1983-075B
CENTER_NAME    = EARTH
REF_FRAME      = TEME
TIME_SYSTEM    = UTC
MEAN_ELEMENT_THEORY = SGP/SGP4

EPOCH          = 2026-03-19T05:56:52.513728
MEAN_MOTION    = 15.38633825
ECCENTRICITY   = .0021133
INCLINATION    = 97.6136
RA_OF_ASC_NODE = 83.1882
ARG_OF_PERICENTER = 190.2307
MEAN_ANOMALY   = 169.8511

EPHEMERIS_TYPE = 0
CLASSIFICATION_TYPE = U
NORAD_CAT_ID   = 14208
ELEMENT_SET_NO = 999
REV_AT_EPOCH   = 33162
BSTAR          = .20353947E-3
MEAN_MOTION_DOT = .7735E-4
MEAN_MOTION_DDOT = 0

CCSDS_OMM_VERS = 2.0
CREATION_DATE  = 
ORIGINATOR     = 

OBJECT_NAME    = COSMOS 1536
OBJECT_ID      = 1984-013A
CENTER_NAME    = EARTH
REF_FRAME      = TEME
TIME_SYSTEM    = UTC
MEAN_ELEMENT_THEORY = SGP/SGP4

EPOCH          = 2026-03-19T07:21:46.771776
MEAN_MOTION    = 15.23947072
ECCENTRICITY   = .001262
INCLINATION    = 82.5410
RA_OF_ASC_NODE = 98.2869
ARG_OF_PERICENTER = 245.0757
MEAN_ANOMALY   = 114.9170

EPHEMERIS_TYPE = 0
CLASSIFICATION_TYPE = U
NORAD_CAT_ID   = 14699
ELEMENT_SET_NO = 999
REV_AT_EPOCH   = 27408
BSTAR          = .18998806E-3
MEAN_MOTION_DOT = .4635E-4
MEAN_MOTION_DDOT = 0

CCSDS_OMM_VERS = 2.0
CREATION_DATE  = 
ORIGINATOR     = 

OBJECT_NAME    = SL-14 R/B
OBJECT_ID      = 1984-027B
CENTER_NAME    = EARTH
REF_FRAME      = TEME
TIME_SYSTEM    = UTC
MEAN_ELEMENT_THEORY = SGP/SGP4

EPOCH          = 2026-03-18T22:02:24.278784
MEAN_MOTION    = 14.85986060
ECCENTRICITY   = .00167256
INCLINATION    = 82.5397
RA_OF_ASC_NODE = 236.3556
ARG_OF_PERICENTER = 305.8119
MEAN_ANOMALY   = 54.1543

EPHEMERIS_TYPE = 0
CLASSIFICATION_TYPE = U
NORAD_CAT_ID   = 14820
ELEMENT_SET_NO = 999
REV_AT_EPOCH   = 24900
BSTAR          = .50487358E-4
MEAN_MOTION_DOT = .466E-5
MEAN_MOTION_DDOT = 0

CCSDS_OMM_VERS = 2.0
CREATION_DATE  = 
ORIGINATOR     = 

OBJECT_NAME    = SL-8 R/B
OBJECT_ID      = 1985-006B
CENTER_NAME    = EARTH
REF_FRAME      = TEME
TIME_SYSTEM    = UTC
MEAN_ELEMENT_THEORY = SGP/SGP4

EPOCH          = 2026-03-19T05:05:08.326752
MEAN_MOTION    = 14.37790192
ECCENTRICITY   = .00180524
INCLINATION    = 74.0436
RA_OF_ASC_NODE = 243.6247
ARG_OF_PERICENTER = 158.8492
MEAN_ANOMALY   = 13.8164

EPHEMERIS_TYPE = 0
CLASSIFICATION_TYPE = U
NORAD_CAT_ID   = 15483
ELEMENT_SET_NO = 999
REV_AT_EPOCH   = 15539
BSTAR          = .11011312E-3
MEAN_MOTION_DOT = .306E-5
MEAN_MOTION_DDOT = 0

CCSDS_OMM_VERS = 2.0
CREATION_DATE  = 
ORIGINATOR     = 

OBJECT_NAME    = SL-12 R/B(2)
OBJECT_ID      = 1985-042D
CENTER_NAME    = EARTH
REF_FRAME      = TEME
TIME_SYSTEM    = UTC
MEAN_ELEMENT_THEORY = SGP/SGP4

EPOCH          = 2026-03-19T08:08:58.130880
MEAN_MOTION    = 14.21985069
ECCENTRICITY   = .00329675
INCLINATION    = 71.1068
RA_OF_ASC_NODE = 67.3392
ARG_OF_PERICENTER = 112.1980
MEAN_ANOMALY   = 350.0116

EPHEMERIS_TYPE = 0
CLASSIFICATION_TYPE = U
NORAD_CAT_ID   = 15772
ELEMENT_SET_NO = 999
REV_AT_EPOCH   = 11576
BSTAR          = .24517455E-4
MEAN_MOTION_DOT = .7E-7
MEAN_MOTION_DDOT = 0

CCSDS_OMM_VERS = 2.0
CREATION_DATE  = 
ORIGINATOR     = 

OBJECT_NAME    = SL-14 R/B
OBJECT_ID      = 1985-069B
CENTER_NAME    = EARTH
REF_FRAME      = TEME
TIME_SYSTEM    = UTC
MEAN_ELEMENT_THEORY = SGP/SGP4

EPOCH          = 2026-03-19T07:18:04.427424
MEAN_MOTION    = 14.86443787
ECCENTRICITY   = .00193423
INCLINATION    = 82.5299
RA_OF_ASC_NODE = 15.8941
ARG_OF_PERICENTER = 156.0973
MEAN_ANOMALY   = 204.1146

EPHEMERIS_TYPE = 0
CLASSIFICATION_TYPE = U
NORAD_CAT_ID   = 15945
ELEMENT_SET_NO = 999
REV_AT_EPOCH   = 17426
BSTAR          = .51067305E-4
MEAN_MOTION_DOT = .477E-5
MEAN_MOTION_DDOT = 0

CCSDS_OMM_VERS = 2.0
CREATION_DATE  = 
ORIGINATOR     = 

OBJECT_NAME    = SL-16 R/B
OBJECT_ID      = 1985-097B
CENTER_NAME    = EARTH
REF_FRAME      = TEME
TIME_SYSTEM    = UTC
MEAN_ELEMENT_THEORY = SGP/SGP4

EPOCH          = 2026-03-19T07:26:46.055328
MEAN_MOTION    = 14.16599881
ECCENTRICITY   = .0009622
INCLINATION    = 71.0013
RA_OF_ASC_NODE = 120.3003
ARG_OF_PERICENTER = 248.0114
MEAN_ANOMALY   = 187.2002

EPHEMERIS_TYPE = 0
CLASSIFICATION_TYPE = U
NORAD_CAT_ID   = 16182
ELEMENT_SET_NO = 999
REV_AT_EPOCH   = 8859
BSTAR          = .15785869E-3
MEAN_MOTION_DOT = .267E-5
MEAN_MOTION_DDOT = 0

CCSDS_OMM_VERS = 2.0
CREATION_DATE  = 
ORIGINATOR     = 

OBJECT_NAME    = SL-14 R/B
OBJECT_ID      = 1986-006B
CENTER_NAME    = EARTH
REF_FRAME      = TEME
TIME_SYSTEM    = UTC
MEAN_ELEMENT_THEORY = SGP/SGP4

EPOCH          = 2026-03-19T05:04:33.902400
MEAN_MOTION    = 14.86828666
ECCENTRICITY   = .00752297
INCLINATION    = 82.5238
RA_OF_ASC_NODE = 250.7728
ARG_OF_PERICENTER = 240.6285
MEAN_ANOMALY   = 118.7405

EPHEMERIS_TYPE = 0
CLASSIFICATION_TYPE = U
NORAD_CAT_ID   = 16496
ELEMENT_SET_NO = 999
REV_AT_EPOCH   = 15062
BSTAR          = .72284581E-4
MEAN_MOTION_DOT = .704E-5
MEAN_MOTION_DDOT = 0

CCSDS_OMM_VERS = 2.0
CREATION_DATE  = 
ORIGINATOR     = 

OBJECT_NAME    = COSMOS 1743
OBJECT_ID      = 1986-034A
CENTER_NAME    = EARTH
REF_FRAME      = TEME
TIME_SYSTEM    = UTC
MEAN_ELEMENT_THEORY = SGP/SGP4

EPOCH          = 2026-03-19T04:57:02.846016
MEAN_MOTION    = 15.59260213
ECCENTRICITY   = .00023915
INCLINATION    = 82.5283
RA_OF_ASC_NODE = 63.8345
ARG_OF_PERICENTER = 208.9636
MEAN_ANOMALY   = 151.1488

EPHEMERIS_TYPE = 0
CLASSIFICATION_TYPE = U
NORAD_CAT_ID   = 16719
ELEMENT_SET_NO = 999
REV_AT_EPOCH   = 18173
BSTAR          = .39384899E-3
MEAN_MOTION_DOT = .31027E-3
MEAN_MOTION_DDOT = 0

